STARLINK-2636           
1 48357U 21038E   26068.04149262  .00015158  00000+0  52220-3 0  9994
2 48357  53.1585   1.1380 0001199 105.2085 254.9048 15.30240385266984
HAWK-11A                
1 62382U 24247F   26068.51231358  .00009457  00000+0  34106-3 0  9991
2 62382  44.9941 114.3328 0005466 327.3713  32.6832 15.28849427 67741
